CCSDS_OMM_VERS = 2.0
CREATION_DATE  = 
ORIGINATOR     = 

OBJECT_NAME    = COSMOS 2550
OBJECT_ID      = 2021-056A
CENTER_NAME    = EARTH
REF_FRAME      = TEME
TIME_SYSTEM    = UTC
MEAN_ELEMENT_THEORY = SGP/SGP4

EPOCH          = 2025-11-12T19:05:54.987648
MEAN_MOTION    = 15.33841294
ECCENTRICITY   = .0008398
INCLINATION    = 67.1441
RA_OF_ASC_NODE = 34.5623
ARG_OF_PERICENTER = 270.3796
MEAN_ANOMALY   = 89.6397

EPHEMERIS_TYPE = 0
CLASSIFICATION_TYPE = U
NORAD_CAT_ID   = 48865
ELEMENT_SET_NO = 999
REV_AT_EPOCH   = 24553
BSTAR          = .16248E-3
MEAN_MOTION_DOT = .5159E-4
MEAN_MOTION_DDOT = 0

CCSDS_OMM_VERS = 2.0
CREATION_DATE  = 
ORIGINATOR     = 

OBJECT_NAME    = CZ-2C R/B
OBJECT_ID      = 2022-058K
CENTER_NAME    = EARTH
REF_FRAME      = TEME
TIME_SYSTEM    = UTC
MEAN_ELEMENT_THEORY = SGP/SGP4

EPOCH          = 2025-11-12T15:37:47.022816
MEAN_MOTION    = 15.46413621
ECCENTRICITY   = .0048844
INCLINATION    = 50.1901
RA_OF_ASC_NODE = 196.7548
ARG_OF_PERICENTER = 73.5572
MEAN_ANOMALY   = 287.0755

EPHEMERIS_TYPE = 0
CLASSIFICATION_TYPE = U
NORAD_CAT_ID   = 52794
ELEMENT_SET_NO = 999
REV_AT_EPOCH   = 19197
BSTAR          = .87369E-3
MEAN_MOTION_DOT = .4593E-3
MEAN_MOTION_DDOT = 0

CCSDS_OMM_VERS = 2.0
CREATION_DATE  = 
ORIGINATOR     = 

OBJECT_NAME    = GSLV R/B
OBJECT_ID      = 2022-138AN
CENTER_NAME    = EARTH
REF_FRAME      = TEME
TIME_SYSTEM    = UTC
MEAN_ELEMENT_THEORY = SGP/SGP4

EPOCH          = 2025-11-12T05:17:20.453568
MEAN_MOTION    = 14.95887927
ECCENTRICITY   = .00199627
INCLINATION    = 87.3847
RA_OF_ASC_NODE = 205.6882
ARG_OF_PERICENTER = 212.9871
MEAN_ANOMALY   = 147.0116

EPHEMERIS_TYPE = 0
CLASSIFICATION_TYPE = U
NORAD_CAT_ID   = 54149
ELEMENT_SET_NO = 999
REV_AT_EPOCH   = 16636
BSTAR          = .62046477E-3
MEAN_MOTION_DOT = .6991E-4
MEAN_MOTION_DDOT = 0

CCSDS_OMM_VERS = 2.0
CREATION_DATE  = 
ORIGINATOR     = 

OBJECT_NAME    = XRISM
OBJECT_ID      = 2023-137A
CENTER_NAME    = EARTH
REF_FRAME      = TEME
TIME_SYSTEM    = UTC
MEAN_ELEMENT_THEORY = SGP/SGP4

EPOCH          = 2025-11-12T16:39:17.188416
MEAN_MOTION    = 15.09882717
ECCENTRICITY   = .0008093
INCLINATION    = 31.0030
RA_OF_ASC_NODE = 319.4718
ARG_OF_PERICENTER = 300.3525
MEAN_ANOMALY   = 59.6313

EPHEMERIS_TYPE = 0
CLASSIFICATION_TYPE = U
NORAD_CAT_ID   = 57800
ELEMENT_SET_NO = 999
REV_AT_EPOCH   = 12008
BSTAR          = .71608E-3
MEAN_MOTION_DOT = .11996E-3
MEAN_MOTION_DDOT = 0

CCSDS_OMM_VERS = 2.0
CREATION_DATE  = 
ORIGINATOR     = 

OBJECT_NAME    = ACS3
OBJECT_ID      = 2024-077B
CENTER_NAME    = EARTH
REF_FRAME      = TEME
TIME_SYSTEM    = UTC
MEAN_ELEMENT_THEORY = SGP/SGP4

EPOCH          = 2025-11-12T20:01:47.331840
MEAN_MOTION    = 13.83566323
ECCENTRICITY   = .0055353
INCLINATION    = 97.3097
RA_OF_ASC_NODE = 279.0802
ARG_OF_PERICENTER = 25.3600
MEAN_ANOMALY   = 335.0259

EPHEMERIS_TYPE = 0
CLASSIFICATION_TYPE = U
NORAD_CAT_ID   = 59588
ELEMENT_SET_NO = 999
REV_AT_EPOCH   = 7800
BSTAR          = .32566E-1
MEAN_MOTION_DOT = .36488E-3
MEAN_MOTION_DDOT = 0

